[{"OBJECT_NAME":"STARLINK-5180","OBJECT_ID":"2023-010BB","EPOCH":"2026-03-09T21:30:38.039904","MEAN_MOTION":14.98332205,"ECCENTRICITY":0.00028053,"INCLINATION":70.0011,"RA_OF_ASC_NODE":3.9191,"ARG_OF_PERICENTER":271.0284,"MEAN_ANOMALY":89.0554,"EPHEMERIS_TYPE":0,"CLASSIFICATION_TYPE":"U","NORAD_CAT_ID":55318,"ELEMENT_SET_NO":999,"REV_AT_EPOCH":17467,"BSTAR":-2.594842e-6,"MEAN_MOTION_DOT":-1.24e-6,"MEAN_MOTION_DDOT":0},{"OBJECT_NAME":"COSMOS 2251 DEB","OBJECT_ID":"1993-036AWS","EPOCH":"2026-03-08T21:06:04.726368","MEAN_MOTION":14.95261151,"ECCENTRICITY":0.00284276,"INCLINATION":73.9951,"RA_OF_ASC_NODE":273.3001,"ARG_OF_PERICENTER":6.025,"MEAN_ANOMALY":354.1269,"EPHEMERIS_TYPE":0,"CLASSIFICATION_TYPE":"U","NORAD_CAT_ID":36000,"ELEMENT_SET_NO":999,"REV_AT_EPOCH":61455,"BSTAR":0.0026863031,"MEAN_MOTION_DOT":0.00029903,"MEAN_MOTION_DDOT":0}]
